[{"OBJECT_NAME":"STARLINK-35191","OBJECT_ID":"2025-207C","EPOCH":"2026-03-09T17:08:42.540864","MEAN_MOTION":15.05647376,"ECCENTRICITY":0.00011635,"INCLINATION":97.6024,"RA_OF_ASC_NODE":138.6645,"ARG_OF_PERICENTER":130.3076,"MEAN_ANOMALY":229.8252,"EPHEMERIS_TYPE":0,"CLASSIFICATION_TYPE":"U","NORAD_CAT_ID":65594,"ELEMENT_SET_NO":999,"REV_AT_EPOCH":2809,"BSTAR":0.00036929125,"MEAN_MOTION_DOT":5.271e-5,"MEAN_MOTION_DDOT":0},{"OBJECT_NAME":"PEGASUS DEB","OBJECT_ID":"1994-029BC","EPOCH":"2026-03-09T22:00:19.479168","MEAN_MOTION":15.02669201,"ECCENTRICITY":0.00619411,"INCLINATION":81.9229,"RA_OF_ASC_NODE":10.1044,"ARG_OF_PERICENTER":202.7728,"MEAN_ANOMALY":222.9696,"EPHEMERIS_TYPE":0,"CLASSIFICATION_TYPE":"U","NORAD_CAT_ID":24007,"ELEMENT_SET_NO":999,"REV_AT_EPOCH":60998,"BSTAR":0.00034526552,"MEAN_MOTION_DOT":4.826e-5,"MEAN_MOTION_DDOT":0}]
